55833,ONEWEB-0674,2023,109.55,-1.0,+,87.9,Active,0,LEO,USA,UK,Unknown,Unknown,Unknown,1 55833U 23029AP  24286.58464605 -.00000306  00000+0 -86119-3 0  9998,2 55833  87.8988  51.5464 0001865 117.6602 242.4717 13.14495612 79618,13.14495612,0.0001865,LEO
55834,ONEWEB-0675,2023,109.11,-1.0,+,87.91,Active,0,LEO,USA,UK,Unknown,Unknown,Unknown,1 55834U 23029AQ  24286.15265044 -.00000509  00000+0 -13028-2 0  9991,2 55834  87.9138  66.8982 0001734  90.7674 269.3657 13.19727709 78773,13.19727709,0.0001734,LEO
55835,ONEWEB-0720,2023,109.11,-1.0,+,87.91,Active,0,LEO,USA,UK,Unknown,Unknown,Unknown,1 55835U 23029AR  24286.14476361  .00000054  00000+0  10352-3 0  9998,2 55835  87.9139  66.8991 0002265 101.2408 258.8979 13.19727117 78670,13.19727117,0.0002265,LEO
56046,ONEWEB-0537,2023,109.37,-1.0,+,87.92,Active,0,LEO,India,UK,Unknown,Unknown,Unknown,1 56046U 23043A   24285.74713316 -.00000129  00000+0 -37015-3 0  9998,2 56046  87.9152 350.9525 0001812  91.4506 268.6832 13.16595780 78242,13.1659578,0.0001812,LEO
56047,ONEWEB-0538,2023,109.37,-1.0,+,87.92,Active,0,LEO,India,UK,Unknown,Unknown,Unknown,1 56047U 23043B   24286.12078537  .00000106  00000+0  24269-3 0  9991,2 56047  87.9155 350.8987 0002119  94.3831 265.7542 13.16592564 79212,13.16592564,0.0002119,LEO
56048,ONEWEB-0546,2023,109.37,-1.0,+,87.92,Active,0,LEO,India,UK,Unknown,Unknown,Unknown,1 56048U 23043C   24286.41210860  .00000145  00000+0  34554-3 0  9992,2 56048  87.9157 350.8068 0001287  78.1549 281.9726 13.16597406 79243,13.16597406,0.0001287,LEO
56049,ONEWEB-0547,2023,108.94,-1.0,+,87.94,Active,0,LEO,India,UK,Unknown,Unknown,Unknown,1 56049U 23043D   24285.73006081  .00000200  00000+0  45229-3 0  9998,2 56049  87.9367   6.1539 0002051  95.8813 264.2555 13.21825834 77181,13.21825834,0.0002051,LEO
56050,ONEWEB-0548,2023,109.37,-1.0,+,87.92,Active,0,LEO,India,UK,Unknown,Unknown,Unknown,1 56050U 23043E   24286.43743682 -.00000306  00000+0 -83399-3 0  9992,2 56050  87.9154 350.8444 0001880 116.7882 243.3441 13.16594086 79246,13.16594086,0.000188,LEO
